{
    "316884336": {
        "tags": {
            "leisure": "pitch",
            "name": "Conne Island Skatepark",
            "sport": "skateboard",
            "wikidata": "Q15108892"
        },
        "lat": "51.3017154",
        "lon": "12.3750319"
    },
    "2179567148": {
        "tags": {
            "amenity": "cafe",
            "food": "no",
            "indoor_seating": "yes",
            "name": "Shredderei",
            "opening_hours": "Mo-Sa 12:00-18:00; Fr 12:00-21:00",
            "outdoor_seating": "no",
            "shop": "sports",
            "smoking": "outside",
            "sport": "skateboard",
            "wheelchair": "limited"
        },
        "lat": "51.3395927",
        "lon": "12.3265188"
    },
    "4228179779": {
        "tags": {
            "addr:city": "Leipzig",
            "addr:floor": "0",
            "addr:housenumber": "10",
            "addr:postcode": "04109",
            "addr:street": "Hainstra\u00dfe",
            "check_date": "2023-04-06",
            "clothes": "yes",
            "email": "leipzig@shop.titus.de",
            "level": "0",
            "name": "Titus Leipzig",
            "opening_hours": "Mo-Fr 11:00-20:00; Sa 10:00-19:00",
            "operator": "titus GmbH",
            "phone": "+49 341 4428333",
            "shop": "sports",
            "sport": "skateboard",
            "website": "https://www.titus.de/shops/leipzig/",
            "wheelchair": "limited"
        },
        "lat": "51.3419187",
        "lon": "12.3737982"
    },
    "6266653751": {
        "tags": {
            "leisure": "pitch",
            "sport": "skateboard"
        },
        "lat": "51.3335126",
        "lon": "12.3262056"
    },
    "10979517874": {
        "tags": {
            "access": "yes",
            "leisure": "pitch",
            "lit": "no",
            "sport": "skateboard"
        },
        "lat": "51.2794676",
        "lon": "12.4634967"
    }
}